start=new Date('2023-04-09T00:00:00.000Z').valueOf();
sats=[{"MEAN_MOTION_DOT":"-0.00000290","DECAY_DATE":null,"ARG_OF_PERICENTER":"84.9881","CENTER_NAME":"EARTH","COUNTRY_CODE":"US","REV_AT_EPOCH":"7907","REF_FRAME":"TEME","OBJECT_TYPE":"PAYLOAD","OBJECT_ID":"2021-104AD","MEAN_MOTION":"15.08833191","TIME_SYSTEM":"UTC","TLE_LINE1":"1 49435U 21104AD  23098.76846217 -.00000290  00000-0 -10373-6 0  9999","MEAN_MOTION_DDOT":"0.0000000000000","PERIAPSIS":"538.726","SITE":"AFETR","LAUNCH_DATE":"2021-11-13","OBJECT_NAME":"STARLINK-3117","EPHEMERIS_TYPE":"0","PERIOD":"95.438","GP_ID":"229739704","ECCENTRICITY":"0.00015030","RCS_SIZE":"LARGE","EPOCH":"2023-04-08T18:26:35.131488","APOAPSIS":"540.806","ELEMENT_SET_NO":"999","BSTAR":"-0.00000010373000","RA_OF_ASC_NODE":"314.2268","TLE_LINE2":"2 49435  53.2150 314.2268 0001503  84.9881 275.1283 15.08833191 79076","MEAN_ANOMALY":"275.1283","MEAN_ELEMENT_THEORY":"SGP4","NORAD_CAT_ID":"49435","CLASSIFICATION_TYPE":"U","FILE":"3883739","SEMIMAJOR_AXIS":"6917.901","INCLINATION":"53.2150"},{"OBJECT_TYPE":"PAYLOAD","OBJECT_ID":"2021-104AE","REF_FRAME":"TEME","ARG_OF_PERICENTER":"85.1829","COUNTRY_CODE":"US","REV_AT_EPOCH":"7906","CENTER_NAME":"EARTH","MEAN_MOTION_DOT":"0.00000090","DECAY_DATE":null,"PERIAPSIS":"538.868","MEAN_MOTION_DDOT":"0.0000000000000","TLE_LINE1":"1 49436U 21104AE  23098.76749904  .00000090  00000-0  23743-4 0  9994","TIME_SYSTEM":"UTC","MEAN_MOTION":"15.08835404","EPOCH":"2023-04-08T18:25:11.917056","RCS_SIZE":"LARGE","ECCENTRICITY":"0.00012880","GP_ID":"229739695","OBJECT_NAME":"STARLINK-3049","LAUNCH_DATE":"2021-11-13","PERIOD":"95.438","EPHEMERIS_TYPE":"0","SITE":"AFETR","FILE":"3883739","CLASSIFICATION_TYPE":"U","SEMIMAJOR_AXIS":"6917.894","INCLINATION":"53.2154","NORAD_CAT_ID":"49436","MEAN_ELEMENT_THEORY":"SGP4","TLE_LINE2":"2 49436  53.2154 314.2263 0001288  85.1829 274.9310 15.08835404 79067","MEAN_ANOMALY":"274.9310","BSTAR":"0.00002374300000","ELEMENT_SET_NO":"999","APOAPSIS":"540.650","RA_OF_ASC_NODE":"314.2263"},{"TLE_LINE1":"1 49437U 21104AF  23098.89261270  .00000600  00000-0  55789-4 0  9996","TIME_SYSTEM":"UTC","MEAN_MOTION":"15.08842141","PERIAPSIS":"539.003","MEAN_MOTION_DDOT":"0.0000000000000","ARG_OF_PERICENTER":"94.8139","REV_AT_EPOCH":"7908","COUNTRY_CODE":"US","CENTER_NAME":"EARTH","MEAN_MOTION_DOT":"0.00000600","DECAY_DATE":null,"OBJECT_TYPE":"PAYLOAD","OBJECT_ID":"2021-104AF","REF_FRAME":"TEME","TLE_LINE2":"2 49437  53.2151 313.6681 0001064  94.8139 265.2975 15.08842141 79083","MEAN_ANOMALY":"265.2975","ELEMENT_SET_NO":"999","BSTAR":"0.00005578900000","APOAPSIS":"540.475","RA_OF_ASC_NODE":"313.6681","FILE":"3883749","CLASSIFICATION_TYPE":"U","SEMIMAJOR_AXIS":"6917.874","INCLINATION":"53.2151","NORAD_CAT_ID":"49437","MEAN_ELEMENT_THEORY":"SGP4","LAUNCH_DATE":"2021-11-13","OBJECT_NAME":"STARLINK-3130","PERIOD":"95.437","EPHEMERIS_TYPE":"0","SITE":"AFETR","EPOCH":"2023-04-08T21:25:21.737280","RCS_SIZE":"LARGE","GP_ID":"229739448","ECCENTRICITY":"0.00010640"},{"DECAY_DATE":null,"MEAN_MOTION_DOT":"0.00000986","REV_AT_EPOCH":"7788","COUNTRY_CODE":"US","CENTER_NAME":"EARTH","ARG_OF_PERICENTER":"80.1447","REF_FRAME":"TEME","OBJECT_ID":"2021-104AG","OBJECT_TYPE":"PAYLOAD","TIME_SYSTEM":"UTC","MEAN_MOTION":"15.08845427","TLE_LINE1":"1 49438U 21104AG  23098.02140125  .00000986  00000-0  80013-4 0  9992","MEAN_MOTION_DDOT":"0.0000000000000","PERIAPSIS":"539.079","SITE":"AFETR","PERIOD":"95.437","EPHEMERIS_TYPE":"0","OBJECT_NAME":"STARLINK-3044","LAUNCH_DATE":"2021-11-13","RCS_SIZE":"LARGE","GP_ID":"229728426","ECCENTRICITY":"0.00009400","EPOCH":"2023-04-08T00:30:49.068000","RA_OF_ASC_NODE":"317.5104","ELEMENT_SET_NO":"999","BSTAR":"0.00008001300000","APOAPSIS":"540.379","MEAN_ANOMALY":"279.9651","TLE_LINE2":"2 49438  53.2150 317.5104 0000940  80.1447 279.9651 15.08845427 77887","NORAD_CAT_ID":"49438","MEAN_ELEMENT_THEORY":"SGP4","INCLINATION":"53.2150","SEMIMAJOR_AXIS":"6917.864","FILE":"3883527","CLASSIFICATION_TYPE":"U"},{"EPHEMERIS_TYPE":"0","PERIOD":"95.437","OBJECT_NAME":"STARLINK-3108","LAUNCH_DATE":"2021-11-13","SITE":"AFETR","EPOCH":"2023-04-08T00:14:56.144256","ECCENTRICITY":"0.00011360","GP_ID":"229729677","RCS_SIZE":"LARGE","MEAN_ANOMALY":"281.6533","TLE_LINE2":"2 49439  53.2159 317.6395 0001136  78.4586 281.6533 15.08845309 77880","RA_OF_ASC_NODE":"317.6395","APOAPSIS":"540.515","BSTAR":"0.00018589000000","ELEMENT_SET_NO":"999","SEMIMAJOR_AXIS":"6917.864","INCLINATION":"53.2159","FILE":"3883527","CLASSIFICATION_TYPE":"U","MEAN_ELEMENT_THEORY":"SGP4","NORAD_CAT_ID":"49439","CENTER_NAME":"EARTH","COUNTRY_CODE":"US","REV_AT_EPOCH":"7788","ARG_OF_PERICENTER":"78.4586","DECAY_DATE":null,"MEAN_MOTION_DOT":"0.00002672","OBJECT_TYPE":"PAYLOAD","OBJECT_ID":"2021-104AH","REF_FRAME":"TEME","TLE_LINE1":"1 49439U 21104AH  23098.01037204  .00002672  00000-0  18589-3 0  9997","MEAN_MOTION":"15.08845309","TIME_SYSTEM":"UTC","PERIAPSIS":"538.943","MEAN_MOTION_DDOT":"0.0000000000000"},{"TLE_LINE1":"1 49440U 21104AJ  23098.75277435 -.00001159  00000-0 -54777-4 0  9993","MEAN_MOTION":"15.08843219","TIME_SYSTEM":"UTC","PERIAPSIS":"539.087","MEAN_MOTION_DDOT":"0.0000000000000","ARG_OF_PERICENTER":"83.0667","CENTER_NAME":"EARTH","REV_AT_EPOCH":"7906","COUNTRY_CODE":"US","MEAN_MOTION_DOT":"-0.00001159","DECAY_DATE":null,"OBJECT_ID":"2021-104AJ","OBJECT_TYPE":"PAYLOAD","REF_FRAME":"TEME","TLE_LINE2":"2 49440  53.2136 314.2982 0000937  83.0667 277.0431 15.08843219 79068","MEAN_ANOMALY":"277.0431","APOAPSIS":"540.384","ELEMENT_SET_NO":"999","BSTAR":"-0.00005477700000","RA_OF_ASC_NODE":"314.2982","FILE":"3883751","CLASSIFICATION_TYPE":"U","SEMIMAJOR_AXIS":"6917.871","INCLINATION":"53.2136","NORAD_CAT_ID":"49440","MEAN_ELEMENT_THEORY":"SGP4","LAUNCH_DATE":"2021-11-13","OBJECT_NAME":"STARLINK-3105","EPHEMERIS_TYPE":"0","PERIOD":"95.437","SITE":"AFETR","EPOCH":"2023-04-08T18:03:59.703840","GP_ID":"229739496","ECCENTRICITY":"0.00009370","RCS_SIZE":"LARGE"},{"MEAN_MOTION":"15.08840288","TIME_SYSTEM":"UTC","TLE_LINE1":"1 49441U 21104AK  23098.86685682  .00001298  00000-0  99593-4 0  9990","MEAN_MOTION_DDOT":"0.0000000000000","PERIAPSIS":"538.980","MEAN_MOTION_DOT":"0.00001298","DECAY_DATE":null,"ARG_OF_PERICENTER":"82.5414","CENTER_NAME":"EARTH","COUNTRY_CODE":"US","REV_AT_EPOCH":"7909","REF_FRAME":"TEME","OBJECT_TYPE":"PAYLOAD","OBJECT_ID":"2021-104AK","APOAPSIS":"540.509","ELEMENT_SET_NO":"999","BSTAR":"0.00009959300000","RA_OF_ASC_NODE":"313.7872","TLE_LINE2":"2 49441  53.2168 313.7872 0001105  82.5414 277.5703 15.08840288 79091","MEAN_ANOMALY":"277.5703","MEAN_ELEMENT_THEORY":"SGP4","NORAD_CAT_ID":"49441","FILE":"3883752","CLASSIFICATION_TYPE":"U","SEMIMAJOR_AXIS":"6917.880","INCLINATION":"53.2168","SITE":"AFETR","OBJECT_NAME":"STARLINK-3128","LAUNCH_DATE":"2021-11-13","EPHEMERIS_TYPE":"0","PERIOD":"95.438","ECCENTRICITY":"0.00011050","GP_ID":"229739871","RCS_SIZE":"LARGE","EPOCH":"2023-04-08T20:48:16.429248"},{"TIME_SYSTEM":"UTC","MEAN_MOTION":"15.08842896","TLE_LINE1":"1 49442U 21104AL  23098.88157473  .00001201  00000-0  93512-4 0  9994","MEAN_MOTION_DDOT":"0.0000000000000","PERIAPSIS":"538.985","DECAY_DATE":null,"MEAN_MOTION_DOT":"0.00001201","REV_AT_EPOCH":"7909","COUNTRY_CODE":"US","CENTER_NAME":"EARTH","ARG_OF_PERICENTER":"97.7962","REF_FRAME":"TEME","OBJECT_ID":"2021-104AL","OBJECT_TYPE":"PAYLOAD","RA_OF_ASC_NODE":"313.7167","ELEMENT_SET_NO":"999","BSTAR":"0.00009351200000","APOAPSIS":"540.488","MEAN_ANOMALY":"262.3154","TLE_LINE2":"2 49442  53.2145 313.7167 0001086  97.7962 262.3154 15.08842896 79097","MEAN_ELEMENT_THEORY":"SGP4","NORAD_CAT_ID":"49442","INCLINATION":"53.2145","SEMIMAJOR_AXIS":"6917.872","CLASSIFICATION_TYPE":"U","FILE":"3883752","SITE":"AFETR","PERIOD":"95.437","EPHEMERIS_TYPE":"0","OBJECT_NAME":"STARLINK-3098","LAUNCH_DATE":"2021-11-13","RCS_SIZE":"LARGE","GP_ID":"229739877","ECCENTRICITY":"0.00010860","EPOCH":"2023-04-08T21:09:28.056672"},{"MEAN_MOTION_DDOT":"0.0000000000000","PERIAPSIS":"538.947","TIME_SYSTEM":"UTC","MEAN_MOTION":"15.08842329","TLE_LINE1":"1 49443U 21104AM  23098.00205540  .00000990  00000-0  80268-4 0  9996","REF_FRAME":"TEME","OBJECT_TYPE":"PAYLOAD","OBJECT_ID":"2021-104AM","DECAY_DATE":null,"MEAN_MOTION_DOT":"0.00000990","REV_AT_EPOCH":"7788","COUNTRY_CODE":"US","CENTER_NAME":"EARTH","ARG_OF_PERICENTER":"86.9180","MEAN_ELEMENT_THEORY":"SGP4","NORAD_CAT_ID":"49443","SEMIMAJOR_AXIS":"6917.873","INCLINATION":"53.2167","FILE":"3883527","CLASSIFICATION_TYPE":"U","RA_OF_ASC_NODE":"317.6681","ELEMENT_SET_NO":"999","BSTAR":"0.00008026800000","APOAPSIS":"540.530","MEAN_ANOMALY":"273.1943","TLE_LINE2":"2 49443  53.2167 317.6681 0001144  86.9180 273.1943 15.08842329 77885","RCS_SIZE":"LARGE","GP_ID":"229729178","ECCENTRICITY":"0.00011440","EPOCH":"2023-04-08T00:02:57.586560","SITE":"AFETR","PERIOD":"95.437","EPHEMERIS_TYPE":"0","OBJECT_NAME":"STARLINK-3136","LAUNCH_DATE":"2021-11-13"},{"APOAPSIS":"540.668","BSTAR":"0.00016275000000","ELEMENT_SET_NO":"999","RA_OF_ASC_NODE":"317.8987","TLE_LINE2":"2 49444  53.2164 317.8987 0001357  78.4170 281.6974 15.08845250 77878","MEAN_ANOMALY":"281.6974","MEAN_ELEMENT_THEORY":"SGP4","NORAD_CAT_ID":"49444","CLASSIFICATION_TYPE":"U","FILE":"3883527","INCLINATION":"53.2164","SEMIMAJOR_AXIS":"6917.864","SITE":"AFETR","LAUNCH_DATE":"2021-11-13","OBJECT_NAME":"STARLINK-3126","EPHEMERIS_TYPE":"0","PERIOD":"95.437","ECCENTRICITY":"0.00013570","GP_ID":"229729924","RCS_SIZE":"LARGE","EPOCH":"2023-04-07T22:48:46.220544","MEAN_MOTION":"15.08845250","TIME_SYSTEM":"UTC","TLE_LINE1":"1 49444U 21104AN  23097.95053496  .00002304  00000-0  16275-3 0  9998","MEAN_MOTION_DDOT":"0.0000000000000","PERIAPSIS":"538.791","MEAN_MOTION_DOT":"0.00002304","DECAY_DATE":null,"ARG_OF_PERICENTER":"78.4170","CENTER_NAME":"EARTH","REV_AT_EPOCH":"7787","COUNTRY_CODE":"US","REF_FRAME":"TEME","OBJECT_ID":"2021-104AN","OBJECT_TYPE":"PAYLOAD"}];
